#aV2010  2 19  0  0   .00000000      96 DD+AD WGS84 FIT  NGA
## 1571 432000.00000000   900.00000000 55246  .0000000000000
+   32     1  2  3  4  5  6  7  8  9 10 11 12 13 14 15 16 17
+         18 19 20 21 22 23 24 25 26 27 28 29 30 31 32  0  0
+          0  0  0  0  0  0  0  0  0  0  0  0  0  0  0  0  0
+          0  0  0  0  0  0  0  0  0  0  0  0  0  0  0  0  0
+          0  0  0  0  0  0  0  0  0  0  0  0  0  0  0  0  0
++         0  0  0  0  0  0  0  0  0  0  0  0  0  0  0  0  0
++         0  0  0  0  0  0  0  0  0  0  0  0  0  0  0  0  0
++         0  0  0  0  0  0  0  0  0  0  0  0  0  0  0  0  0
++         0  0  0  0  0  0  0  0  0  0  0  0  0  0  0  0  0
++         0  0  0  0  0  0  0  0  0  0  0  0  0  0  0  0  0
%c cc cc ccc ccc cccc cccc cccc cccc ccccc ccccc ccccc ccccc
%c cc cc ccc ccc cccc cccc cccc cccc ccccc ccccc ccccc ccccc
%f  0.0000000  0.000000000  0.00000000000  0.000000000000000
%f  0.0000000  0.000000000  0.00000000000  0.000000000000000
%i    0    0    0    0      0      0      0      0         0
%i    0    0    0    0      0      0      0      0         0
/*      NGA, ST. LOUIS,MO.                                  
/*   EPHEMERIS COMPUTED FROM  3 DAYS OF DATA                
/* CCCCCCCCCCCCCCCCCCCCCCCCCCCCCCCCCCCCCCCCCCCCCCCCCCCCCCCCC
/* CCCCCCCCCCCCCCCCCCCCCCCCCCCCCCCCCCCCCCCCCCCCCCCCCCCCCCCCC
*  2010  2 19 13 45   .00000000                                                 
P  1 -15008.232747   4546.013265  21324.328974    -90.566002                    
V  1    465.753616 -27323.098202   6251.448989      -.038753                    
P  2  -6956.516467 -19101.141166  17266.279828    228.345046                    
V  2  19613.495099   9960.751574  18419.508038       .040325                    
P  3    772.629662  17683.220052 -20066.177776    517.917025                    
V  3 -21426.440399  12827.150335  11015.877787       .051522                    
P  4   8592.041430 -13020.988299  21327.076844     18.746541                    
V  4  23274.187191  14765.815389      2.130338       .090234                    
P  5  -2572.483318 -25878.166382  -5189.925206     -7.343937                    
V  5   3127.165077  -6458.388049  30857.326717       .022435                    
P  6  -4371.930189  18347.509455 -18473.618556    247.224605                    
V  6 -21657.789791  10428.242962  15452.246887      -.055628                    
P  7  22875.375107   4074.892675 -13018.049672      2.651675                    
V  7  12810.285946  10479.299006  25652.154048      -.005342                    
P  8  15874.020503  -5188.269145 -20803.972673      3.439175                    
V  8  20804.394749  15853.921911  11424.662712       .004623                    
P  9 -20080.389792 -16601.778283  -5913.316487    106.992680                    
V  9   6735.900678   1657.657199 -30976.050155       .022803                    
P 10   2590.906779 -26204.734788   1148.670734    -35.901349                    
V 10   3213.918166   1912.598775  31796.789192      -.009901                    
P 11  24133.993922  11188.448411  -3113.278220    -46.232978                    
V 11  -5007.208484   3171.756554 -29515.580419      -.021574                    
P 12 -11970.186239 -14883.376266  18574.657744   -148.155373                    
V 12   2497.746399 -23292.370946 -16967.275430       .047207                    
P 13  24514.633172  -4209.708823   9200.032107    306.404822                    
V 13 -10182.004947   6238.023346  29549.687357      -.001722                    
P 14 -20562.333731  15001.953849   7505.044247     13.533150                    
V 14  -9293.626570   2182.741218 -30495.650244       .042238                    
P 15  -8690.432100 -12704.848082 -21628.101046   -305.230153                    
V 15  24159.621834 -13199.390889  -1842.758480       .031560                    
P 16  -2727.968260  26245.377557   1284.667740    -43.084031                    
V 16  -2604.199398  -1769.656151  32095.953871      -.040330                    
P 17  19521.866423 -15942.712189   8115.859389    131.059311                    
V 17  10417.561394  -2032.648761 -29582.867494       .028958                    
P 18 -15514.146417   5042.816193 -20642.825657     49.987192                    
V 18    823.778887 -26961.550256  -7487.306316       .025828                    
P 19   9666.563944  12284.036009 -21467.245048    -16.637188                    
V 19 -25013.456019  10986.473798  -4681.542727      -.023533                    
P 20  14172.741793  10846.482159  19550.290360     60.993801                    
V 20  -1799.559738  25161.867534 -12509.942557      -.007713                    
P 21 -21549.278717   -327.391701 -15609.518256    -41.646377                    
V 21 -15671.457203 -12952.871600  20859.307956      -.025072                    
P 22 -12322.180628  18059.539041 -14868.343377    178.713872                    
V 22  -1245.364139 -19403.629980 -22376.768548      -.011452                    
P 23  19880.439435   3299.075012  17429.546882    379.491187                    
V 23 -19013.168233  11246.858145  19230.018407      -.010325                    
P 24 -23102.052730  -7037.689052 -10708.402360    263.783911                    
V 24  -9541.035952 -10430.335827  27463.414566       .033096                    
P 25 -13800.718589 -13111.506002  18231.144094     12.701061                    
V 25    406.840607 -23886.079910 -16485.329547       .755284                    
P 26 -25285.476336   7804.617555  -4715.593292    -20.117386                    
V 26   4222.827372  -3370.389871 -31410.551865      -.037577                    
P 27 -19696.825461 -16299.348845  -6713.798448    127.537110                    
V 27   9287.123335   2679.586426 -30503.544157       .031888                    
P 28  12684.688113 -15703.185328 -16632.629023    -21.843958                    
V 28    221.622304  22207.830711 -20525.057417       .006849                    
P 29 -23656.145455   2144.001556  11942.865972     99.230352                    
V 29  12515.551945  -8658.814007  26583.157785       .029593                    
P 30 -15052.933191  -3191.503106  21267.628881    220.971755                    
V 30    390.908172 -27938.116232  -3791.379175       .034260                    
P 31  -5703.396959  14040.495795  22016.048343    -50.801637                    
V 31 -23250.997415 -14509.837974   3425.804498       .015776                    
P 32   8373.612002  20225.968785  15618.043103     91.569433                    
V 32  -4151.737781  18689.996585 -22174.007222      -.084165                    
EOF
